[{"OBJECT_NAME":"STARLINK-4108","OBJECT_ID":"2022-062E","EPOCH":"2026-03-09T07:08:21.181632","MEAN_MOTION":15.08841845,"ECCENTRICITY":0.00015446,"INCLINATION":53.2182,"RA_OF_ASC_NODE":35.8811,"ARG_OF_PERICENTER":79.6679,"MEAN_ANOMALY":280.4487,"EPHEMERIS_TYPE":0,"CLASSIFICATION_TYPE":"U","NORAD_CAT_ID":52834,"ELEMENT_SET_NO":999,"REV_AT_EPOCH":20572,"BSTAR":3.8282983e-5,"MEAN_MOTION_DOT":3.21e-6,"MEAN_MOTION_DDOT":0},{"OBJECT_NAME":"FENGYUN 1C DEB","OBJECT_ID":"1999-025DVA","EPOCH":"2026-03-08T04:27:49.439232","MEAN_MOTION":15.15496966,"ECCENTRICITY":0.00338373,"INCLINATION":98.8203,"RA_OF_ASC_NODE":206.4896,"ARG_OF_PERICENTER":4.2711,"MEAN_ANOMALY":355.88,"EPHEMERIS_TYPE":0,"CLASSIFICATION_TYPE":"U","NORAD_CAT_ID":36225,"ELEMENT_SET_NO":999,"REV_AT_EPOCH":68062,"BSTAR":0.0036229129,"MEAN_MOTION_DOT":0.00070122,"MEAN_MOTION_DDOT":0}]
